{"type":"Feature","properties":{"hash":"f70500e9f50df6c1","number":"5240","street":"LITTLE WOODS LN","unit":"","city":"DAYTON","district":"","region":"OH","postcode":"45429","id":""},"geometry":{"type":"Point","coordinates":[-84.1652736,39.6704203]}}
{"type":"Feature","properties":{"hash":"2250ca1d33b91dda","number":"7680","street":"WOLF CREEK PIKE","unit":"","city":"TROTWOOD","district":"","region":"OH","postcode":"45426","id":""},"geometry":{"type":"Point","coordinates":[-84.3222952,39.7960732]}}
{"type":"Feature","properties":{"hash":"7ac0433c14628c7f","number":"1","street":"OAK ST","unit":"","city":"TROTWOOD","district":"","region":"OH","postcode":"45426","id":""},"geometry":{"type":"Point","coordinates":[-84.3160965,39.7974926]}}
{"type":"Feature","properties":{"hash":"020ea7cc6ad6b87f","number":"205","street":"W  MAIN ST","unit":"","city":"TROTWOOD","district":"","region":"OH","postcode":"45426","id":""},"geometry":{"type":"Point","coordinates":[-84.3151675,39.7974989]}}
{"type":"Feature","properties":{"hash":"bec67583197b3a82","number":"5","street":"MAPLE ST","unit":"","city":"TROTWOOD","district":"","region":"OH","postcode":"45426","id":""},"geometry":{"type":"Point","coordinates":[-84.3148635,39.7979649]}}
{"type":"Feature","properties":{"hash":"73cf9c345241dfd3","number":"3","street":"MAPLE ST","unit":"","city":"TROTWOOD","district":"","region":"OH","postcode":"45426","id":""},"geometry":{"type":"Point","coordinates":[-84.3148456,39.7978182]}}
{"type":"Feature","properties":{"hash":"50971b682ffdc325","number":"10","street":"MAPLE ST","unit":"","city":"TROTWOOD","district":"","region":"OH","postcode":"45426","id":""},"geometry":{"type":"Point","coordinates":[-84.3145086,39.7980267]}}
{"type":"Feature","properties":{"hash":"83231ea5ea85196e","number":"1","street":"MAPLE ST","unit":"","city":"TROTWOOD","district":"","region":"OH","postcode":"45426","id":""},"geometry":{"type":"Point","coordinates":[-84.3148903,39.7976813]}}
{"type":"Feature","properties":{"hash":"8782434a869610b5","number":"9","street":"W  MAIN ST","unit":"","city":"TROTWOOD","district":"","region":"OH","postcode":"45426","id":""},"geometry":{"type":"Point","coordinates":[-84.3127189,39.7974543]}}
{"type":"Feature","properties":{"hash":"51b910a47c130890","number":"9","street":"OAK ST","unit":"","city":"TROTWOOD","district":"","region":"OH","postcode":"45426","id":""},"geometry":{"type":"Point","coordinates":[-84.3162215,39.7982651]}}
{"type":"Feature","properties":{"hash":"7d8104f4e2650156","number":"701","street":"WOLF CREEK PIKE","unit":"","city":"TROTWOOD","district":"","region":"OH","postcode":"45426","id":""},"geometry":{"type":"Point","coordinates":[-84.3235689,39.7978472]}}
{"type":"Feature","properties":{"hash":"ea3fbfe9c8562223","number":"640","street":"DEAUVILLE DR","unit":"","city":"DAYTON","district":"","region":"OH","postcode":"45429","id":""},"geometry":{"type":"Point","coordinates":[-84.1503986,39.6644676]}}
{"type":"Feature","properties":{"hash":"9307dd7f2fec42c8","number":"7","street":"OAK ST","unit":"","city":"TROTWOOD","district":"","region":"OH","postcode":"45426","id":""},"geometry":{"type":"Point","coordinates":[-84.3161682,39.7981374]}}
{"type":"Feature","properties":{"hash":"8bdf0fb29f15a315","number":"4600","street":"WILMINGTON PIKE","unit":"111","city":"KETTERING","district":"","region":"OH","postcode":"45440","id":""},"geometry":{"type":"Point","coordinates":[-84.1185267,39.677463]}}
{"type":"Feature","properties":{"hash":"f13b4da7f8b2bb3f","number":"2524","street":"E  DOROTHY LN","unit":"","city":"KETTERING","district":"","region":"OH","postcode":"45420","id":""},"geometry":{"type":"Point","coordinates":[-84.1179122,39.7006408]}}
{"type":"Feature","properties":{"hash":"68c4838ce0e302b4","number":"4527","street":"WILMINGTON PIKE","unit":"2","city":"KETTERING","district":"","region":"OH","postcode":"45440","id":""},"geometry":{"type":"Point","coordinates":[-84.1195451,39.6773532]}}
{"type":"Feature","properties":{"hash":"0b2e2f09235fc09e","number":"8840","street":"WINDBLUFF PT","unit":"","city":"DAYTON","district":"","region":"OH","postcode":"45458","id":""},"geometry":{"type":"Point","coordinates":[-84.1206079,39.6151452]}}
{"type":"Feature","properties":{"hash":"d3fb893d1a17e15a","number":"4543","street":"WILMINGTON PIKE","unit":"1","city":"KETTERING","district":"","region":"OH","postcode":"45440","id":""},"geometry":{"type":"Point","coordinates":[-84.1190436,39.6769055]}}
{"type":"Feature","properties":{"hash":"19287213a327c5c1","number":"4551","street":"WILMINGTON PIKE","unit":"4","city":"KETTERING","district":"","region":"OH","postcode":"45440","id":""},"geometry":{"type":"Point","coordinates":[-84.1189248,39.6767821]}}
{"type":"Feature","properties":{"hash":"0113ace4e16656be","number":"4551","street":"WILMINGTON PIKE","unit":"2","city":"KETTERING","district":"","region":"OH","postcode":"45440","id":""},"geometry":{"type":"Point","coordinates":[-84.1188537,39.6767221]}}
